ONEWEB-0161             
1 48053U 21025M   25212.91834080  .00000261  00000+0  68009-3 0  9999
2 48053  87.8969  23.8504 0001579  90.5851 269.5459 13.13472390211468
ONEWEB-0158             
1 48054U 21025N   25212.95387411 -.00000337  00000+0 -95801-3 0  9991
2 48054  87.8971  23.8224 0001911  93.9010 266.2338 13.13469454211596
ONEWEB-0157             
1 48055U 21025P   25212.90309487 -.00000102  00000+0 -31375-3 0  9990
2 48055  87.8964  23.8426 0001361  86.1523 273.9762 13.13469885211522
ONEWEB-0162             
1 48056U 21025Q   25213.03161721 -.00000155  00000+0 -45846-3 0  9999
2 48056  87.8967  23.8154 0001725  92.1431 267.9895 13.13469287211495
ONEWEB-0155             
1 48057U 21025R   25212.88615382 -.00000296  00000+0 -84682-3 0  9996
2 48057  87.8965  23.8523 0001735  85.1822 274.9505 13.13471395211636
ONEWEB-0149             
1 48058U 21025S   25212.98435446 -.00000034  00000+0 -12737-3 0  9991
2 48058  87.8965  23.8276 0001721  98.7884 261.3440 13.13470074211467
ONEWEB-0148             
1 48059U 21025T   25212.94711169 -.00000006  00000+0 -52435-4 0  9996
2 48059  87.8967  23.8593 0001364 111.5343 248.5932 13.13471300211577
ONEWEB-0160             
1 48060U 21025U   25212.88786546 -.00000307  00000+0 -87642-3 0  9993
2 48060  87.8967  23.8681 0002604  95.5770 264.5656 13.13468972211516
ONEWEB-0163             
1 48061U 21025V   25212.94881030 -.00000057  00000+0 -19204-3 0  9996
2 48061  87.8967  23.8365 0001481  86.1784 273.9514 13.13469208211643
ONEWEB-0159             
1 48062U 21025W   25212.94034076  .00000194  00000+0  49743-3 0  9998
2 48062  87.8969  23.8197 0001533  91.7511 268.3794 13.13469335211567
ONEWEB-0164             
1 48063U 21025X   25212.92172406  .00000284  00000+0  74324-3 0  9990
2 48063  87.8966  23.8335 0001831  91.2933 268.8406 13.13470214211544
ONEWEB-0167             
1 48064U 21025Y   25212.94966147 -.00000033  00000+0 -12649-3 0  9992
2 48064  87.8977  23.8598 0001750  65.5086 294.6225 13.13469457211533
ONEWEB-0166             
1 48065U 21025Z   25212.89633037 -.00000211  00000+0 -61206-3 0  9997
2 48065  87.8962  23.8233 0001650  96.5436 263.5881 13.13470377211600
ONEWEB-0151             
1 48066U 21025AA  25212.89801886 -.00000174  00000+0 -51004-3 0  9990
2 48066  87.8967  23.8465 0001800  87.3748 272.7587 13.13470158211549
ONEWEB-0170             
1 48067U 21025AB  25213.21119707 -.00000062  00000+0 -20568-3 0  9999
2 48067  87.8968  23.7899 0002211  84.7986 275.3395 13.13470834211540
ONEWEB-0168             
1 48068U 21025AC  25212.96743772 -.00001449  00000+0 -40033-2 0  9994
2 48068  87.8971  23.8200 0001744  90.0865 270.0464 13.13459494211524
ONEWEB-0173             
1 48069U 21025AD  25212.88278286 -.00000271  00000+0 -77717-3 0  9991
2 48069  87.8969  23.8447 0001495  78.8434 281.2864 13.13469194211755
