[{"OBJECT_NAME":"ONEWEB-0161","OBJECT_ID":"2021-025M","EPOCH":"2025-07-31T22:02:24.645120","MEAN_MOTION":13.1347239,"ECCENTRICITY":0.0001579,"INCLINATION":87.8969,"RA_OF_ASC_NODE":23.8504,"ARG_OF_PERICENTER":90.5851,"MEAN_ANOMALY":269.5459,"EPHEMERIS_TYPE":0,"CLASSIFICATION_TYPE":"U","NORAD_CAT_ID":48053,"ELEMENT_SET_NO":999,"REV_AT_EPOCH":21146,"BSTAR":0.00068009,"MEAN_MOTION_DOT":2.61e-6,"MEAN_MOTION_DDOT":0},{"OBJECT_NAME":"ONEWEB-0158","OBJECT_ID":"2021-025N","EPOCH":"2025-07-31T22:53:34.723104","MEAN_MOTION":13.13469454,"ECCENTRICITY":0.0001911,"INCLINATION":87.8971,"RA_OF_ASC_NODE":23.8224,"ARG_OF_PERICENTER":93.901,"MEAN_ANOMALY":266.2338,"EPHEMERIS_TYPE":0,"CLASSIFICATION_TYPE":"U","NORAD_CAT_ID":48054,"ELEMENT_SET_NO":999,"REV_AT_EPOCH":21159,"BSTAR":-0.00095801,"MEAN_MOTION_DOT":-3.37e-6,"MEAN_MOTION_DDOT":0},{"OBJECT_NAME":"ONEWEB-0157","OBJECT_ID":"2021-025P","EPOCH":"2025-07-31T21:40:27.396768","MEAN_MOTION":13.13469885,"ECCENTRICITY":0.0001361,"INCLINATION":87.8964,"RA_OF_ASC_NODE":23.8426,"ARG_OF_PERICENTER":86.1523,"MEAN_ANOMALY":273.9762,"EPHEMERIS_TYPE":0,"CLASSIFICATION_TYPE":"U","NORAD_CAT_ID":48055,"ELEMENT_SET_NO":999,"REV_AT_EPOCH":21152,"BSTAR":-0.00031375,"MEAN_MOTION_DOT":-1.02e-6,"MEAN_MOTION_DDOT":0},{"OBJECT_NAME":"ONEWEB-0162","OBJECT_ID":"2021-025Q","EPOCH":"2025-08-01T00:45:31.726944","MEAN_MOTION":13.13469287,"ECCENTRICITY":0.0001725,"INCLINATION":87.8967,"RA_OF_ASC_NODE":23.8154,"ARG_OF_PERICENTER":92.1431,"MEAN_ANOMALY":267.9895,"EPHEMERIS_TYPE":0,"CLASSIFICATION_TYPE":"U","NORAD_CAT_ID":48056,"ELEMENT_SET_NO":999,"REV_AT_EPOCH":21149,"BSTAR":-0.00045846,"MEAN_MOTION_DOT":-1.55e-6,"MEAN_MOTION_DDOT":0},{"OBJECT_NAME":"ONEWEB-0155","OBJECT_ID":"2021-025R","EPOCH":"2025-07-31T21:16:03.690048","MEAN_MOTION":13.13471395,"ECCENTRICITY":0.0001735,"INCLINATION":87.8965,"RA_OF_ASC_NODE":23.8523,"ARG_OF_PERICENTER":85.1822,"MEAN_ANOMALY":274.9505,"EPHEMERIS_TYPE":0,"CLASSIFICATION_TYPE":"U","NORAD_CAT_ID":48057,"ELEMENT_SET_NO":999,"REV_AT_EPOCH":21163,"BSTAR":-0.00084682,"MEAN_MOTION_DOT":-2.96e-6,"MEAN_MOTION_DDOT":0},{"OBJECT_NAME":"ONEWEB-0149","OBJECT_ID":"2021-025S","EPOCH":"2025-07-31T23:37:28.225344","MEAN_MOTION":13.13470074,"ECCENTRICITY":0.0001721,"INCLINATION":87.8965,"RA_OF_ASC_NODE":23.8276,"ARG_OF_PERICENTER":98.7884,"MEAN_ANOMALY":261.344,"EPHEMERIS_TYPE":0,"CLASSIFICATION_TYPE":"U","NORAD_CAT_ID":48058,"ELEMENT_SET_NO":999,"REV_AT_EPOCH":21146,"BSTAR":-0.00012737,"MEAN_MOTION_DOT":-3.4e-7,"MEAN_MOTION_DDOT":0},{"OBJECT_NAME":"ONEWEB-0148","OBJECT_ID":"2021-025T","EPOCH":"2025-07-31T22:43:50.450016","MEAN_MOTION":13.134713,"ECCENTRICITY":0.0001364,"INCLINATION":87.8967,"RA_OF_ASC_NODE":23.8593,"ARG_OF_PERICENTER":111.5343,"MEAN_ANOMALY":248.5932,"EPHEMERIS_TYPE":0,"CLASSIFICATION_TYPE":"U","NORAD_CAT_ID":48059,"ELEMENT_SET_NO":999,"REV_AT_EPOCH":21157,"BSTAR":-5.2435e-5,"MEAN_MOTION_DOT":-6.0e-8,"MEAN_MOTION_DDOT":0},{"OBJECT_NAME":"ONEWEB-0160","OBJECT_ID":"2021-025U","EPOCH":"2025-07-31T21:18:31.575744","MEAN_MOTION":13.13468972,"ECCENTRICITY":0.0002604,"INCLINATION":87.8967,"RA_OF_ASC_NODE":23.8681,"ARG_OF_PERICENTER":95.577,"MEAN_ANOMALY":264.5656,"EPHEMERIS_TYPE":0,"CLASSIFICATION_TYPE":"U","NORAD_CAT_ID":48060,"ELEMENT_SET_NO":999,"REV_AT_EPOCH":21151,"BSTAR":-0.00087642,"MEAN_MOTION_DOT":-3.07e-6,"MEAN_MOTION_DDOT":0},{"OBJECT_NAME":"ONEWEB-0163","OBJECT_ID":"2021-025V","EPOCH":"2025-07-31T22:46:17.209920","MEAN_MOTION":13.13469208,"ECCENTRICITY":0.0001481,"INCLINATION":87.8967,"RA_OF_ASC_NODE":23.8365,"ARG_OF_PERICENTER":86.1784,"MEAN_ANOMALY":273.9514,"EPHEMERIS_TYPE":0,"CLASSIFICATION_TYPE":"U","NORAD_CAT_ID":48061,"ELEMENT_SET_NO":999,"REV_AT_EPOCH":21164,"BSTAR":-0.00019204,"MEAN_MOTION_DOT":-5.7e-7,"MEAN_MOTION_DDOT":0},{"OBJECT_NAME":"ONEWEB-0159","OBJECT_ID":"2021-025W","EPOCH":"2025-07-31T22:34:05.441664","MEAN_MOTION":13.13469335,"ECCENTRICITY":0.0001533,"INCLINATION":87.8969,"RA_OF_ASC_NODE":23.8197,"ARG_OF_PERICENTER":91.7511,"MEAN_ANOMALY":268.3794,"EPHEMERIS_TYPE":0,"CLASSIFICATION_TYPE":"U","NORAD_CAT_ID":48062,"ELEMENT_SET_NO":999,"REV_AT_EPOCH":21156,"BSTAR":0.00049743,"MEAN_MOTION_DOT":1.94e-6,"MEAN_MOTION_DDOT":0},{"OBJECT_NAME":"ONEWEB-0164","OBJECT_ID":"2021-025X","EPOCH":"2025-07-31T22:07:16.958784","MEAN_MOTION":13.13470214,"ECCENTRICITY":0.0001831,"INCLINATION":87.8966,"RA_OF_ASC_NODE":23.8335,"ARG_OF_PERICENTER":91.2933,"MEAN_ANOMALY":268.8406,"EPHEMERIS_TYPE":0,"CLASSIFICATION_TYPE":"U","NORAD_CAT_ID":48063,"ELEMENT_SET_NO":999,"REV_AT_EPOCH":21154,"BSTAR":0.00074324,"MEAN_MOTION_DOT":2.84e-6,"MEAN_MOTION_DDOT":0},{"OBJECT_NAME":"ONEWEB-0167","OBJECT_ID":"2021-025Y","EPOCH":"2025-07-31T22:47:30.751008","MEAN_MOTION":13.13469457,"ECCENTRICITY":0.000175,"INCLINATION":87.8977,"RA_OF_ASC_NODE":23.8598,"ARG_OF_PERICENTER":65.5086,"MEAN_ANOMALY":294.6225,"EPHEMERIS_TYPE":0,"CLASSIFICATION_TYPE":"U","NORAD_CAT_ID":48064,"ELEMENT_SET_NO":999,"REV_AT_EPOCH":21153,"BSTAR":-0.00012649,"MEAN_MOTION_DOT":-3.3e-7,"MEAN_MOTION_DDOT":0},{"OBJECT_NAME":"ONEWEB-0166","OBJECT_ID":"2021-025Z","EPOCH":"2025-07-31T21:30:42.943968","MEAN_MOTION":13.13470377,"ECCENTRICITY":0.000165,"INCLINATION":87.8962,"RA_OF_ASC_NODE":23.8233,"ARG_OF_PERICENTER":96.5436,"MEAN_ANOMALY":263.5881,"EPHEMERIS_TYPE":0,"CLASSIFICATION_TYPE":"U","NORAD_CAT_ID":48065,"ELEMENT_SET_NO":999,"REV_AT_EPOCH":21160,"BSTAR":-0.00061206,"MEAN_MOTION_DOT":-2.11e-6,"MEAN_MOTION_DDOT":0},{"OBJECT_NAME":"ONEWEB-0151","OBJECT_ID":"2021-025AA","EPOCH":"2025-07-31T21:33:08.829504","MEAN_MOTION":13.13470158,"ECCENTRICITY":0.00018,"INCLINATION":87.8967,"RA_OF_ASC_NODE":23.8465,"ARG_OF_PERICENTER":87.3748,"MEAN_ANOMALY":272.7587,"EPHEMERIS_TYPE":0,"CLASSIFICATION_TYPE":"U","NORAD_CAT_ID":48066,"ELEMENT_SET_NO":999,"REV_AT_EPOCH":21154,"BSTAR":-0.00051004,"MEAN_MOTION_DOT":-1.74e-6,"MEAN_MOTION_DDOT":0},{"OBJECT_NAME":"ONEWEB-0170","OBJECT_ID":"2021-025AB","EPOCH":"2025-08-01T05:04:07.426848","MEAN_MOTION":13.13470834,"ECCENTRICITY":0.0002211,"INCLINATION":87.8968,"RA_OF_ASC_NODE":23.7899,"ARG_OF_PERICENTER":84.7986,"MEAN_ANOMALY":275.3395,"EPHEMERIS_TYPE":0,"CLASSIFICATION_TYPE":"U","NORAD_CAT_ID":48067,"ELEMENT_SET_NO":999,"REV_AT_EPOCH":21154,"BSTAR":-0.00020568,"MEAN_MOTION_DOT":-6.2e-7,"MEAN_MOTION_DDOT":0},{"OBJECT_NAME":"ONEWEB-0168","OBJECT_ID":"2021-025AC","EPOCH":"2025-07-31T23:13:06.619008","MEAN_MOTION":13.13459494,"ECCENTRICITY":0.0001744,"INCLINATION":87.8971,"RA_OF_ASC_NODE":23.82,"ARG_OF_PERICENTER":90.0865,"MEAN_ANOMALY":270.0464,"EPHEMERIS_TYPE":0,"CLASSIFICATION_TYPE":"U","NORAD_CAT_ID":48068,"ELEMENT_SET_NO":999,"REV_AT_EPOCH":21152,"BSTAR":-0.0040033,"MEAN_MOTION_DOT":-1.449e-5,"MEAN_MOTION_DDOT":0},{"OBJECT_NAME":"ONEWEB-0173","OBJECT_ID":"2021-025AD","EPOCH":"2025-07-31T21:11:12.439104","MEAN_MOTION":13.13469194,"ECCENTRICITY":0.0001495,"INCLINATION":87.8969,"RA_OF_ASC_NODE":23.8447,"ARG_OF_PERICENTER":78.8434,"MEAN_ANOMALY":281.2864,"EPHEMERIS_TYPE":0,"CLASSIFICATION_TYPE":"U","NORAD_CAT_ID":48069,"ELEMENT_SET_NO":999,"REV_AT_EPOCH":21175,"BSTAR":-0.00077717,"MEAN_MOTION_DOT":-2.71e-6,"MEAN_MOTION_DDOT":0}]
